{"fetched_at":"2026-07-06T08:47:05.309Z","source":"https://celestrak.org/NORAD/elements/gp.php?NAME=ICEYE&FORMAT=JSON","constellation":"iceye","records":[{"OBJECT_NAME":"ICEYE-X2","OBJECT_ID":"2018-099AU","EPOCH":"2026-07-05T14:25:08.637888","CLASSIFICATION_TYPE":"U","MEAN_MOTION":15.17971348,"ECCENTRICITY":0.00088005,"INCLINATION":97.4342,"RA_OF_ASC_NODE":240.1192,"ARG_OF_PERICENTER":231.6204,"MEAN_ANOMALY":128.424,"EPHEMERIS_TYPE":0,"NORAD_CAT_ID":43800,"ELEMENT_SET_NO":999,"REV_AT_EPOCH":41561,"BSTAR":0.00069028152,"MEAN_MOTION_DOT":0.00013985,"MEAN_MOTION_DDOT":0},{"OBJECT_NAME":"ICEYE-X4","OBJECT_ID":"2019-038D","EPOCH":"2026-07-05T15:31:54.215328","CLASSIFICATION_TYPE":"U","MEAN_MOTION":15.29729557,"ECCENTRICITY":0.00119758,"INCLINATION":97.8748,"RA_OF_ASC_NODE":220.6489,"ARG_OF_PERICENTER":233.4642,"MEAN_ANOMALY":126.5495,"EPHEMERIS_TYPE":0,"NORAD_CAT_ID":44390,"ELEMENT_SET_NO":999,"REV_AT_EPOCH":38462,"BSTAR":0.00049016856,"MEAN_MOTION_DOT":0.00014074,"MEAN_MOTION_DDOT":0},{"OBJECT_NAME":"ICEYE-X7","OBJECT_ID":"2020-068L","EPOCH":"2026-07-05T15:06:27.249984","CLASSIFICATION_TYPE":"U","MEAN_MOTION":15.31948235,"ECCENTRICITY":0.00052567,"INCLINATION":97.7506,"RA_OF_ASC_NODE":153.9994,"ARG_OF_PERICENTER":256.594,"MEAN_ANOMALY":103.4715,"EPHEMERIS_TYPE":0,"NORAD_CAT_ID":46496,"ELEMENT_SET_NO":999,"REV_AT_EPOCH":31761,"BSTAR":0.00046769613,"MEAN_MOTION_DOT":0.0001436,"MEAN_MOTION_DDOT":0},{"OBJECT_NAME":"ICEYE-X6","OBJECT_ID":"2020-068M","EPOCH":"2026-07-05T14:43:09.530400","CLASSIFICATION_TYPE":"U","MEAN_MOTION":15.0462312,"ECCENTRICITY":0.00079359,"INCLINATION":98.0971,"RA_OF_ASC_NODE":181.1665,"ARG_OF_PERICENTER":38.0216,"MEAN_ANOMALY":322.1567,"EPHEMERIS_TYPE":0,"NORAD_CAT_ID":46497,"ELEMENT_SET_NO":999,"REV_AT_EPOCH":31600,"BSTAR":0.00027052001,"MEAN_MOTION_DOT":0.00003735,"MEAN_MOTION_DDOT":0},{"OBJECT_NAME":"ICEYE-X21","OBJECT_ID":"2023-001AS","EPOCH":"2026-06-24T05:11:18.420288","CLASSIFICATION_TYPE":"U","MEAN_MOTION":16.24069885,"ECCENTRICITY":0.00123774,"INCLINATION":97.3001,"RA_OF_ASC_NODE":262.6152,"ARG_OF_PERICENTER":285.9702,"MEAN_ANOMALY":74.0225,"EPHEMERIS_TYPE":0,"NORAD_CAT_ID":55049,"ELEMENT_SET_NO":999,"REV_AT_EPOCH":19475,"BSTAR":0.000602142,"MEAN_MOTION_DOT":0.01585954,"MEAN_MOTION_DDOT":0.000002396838},{"OBJECT_NAME":"ICEYE-X25","OBJECT_ID":"2023-084AH","EPOCH":"2026-07-05T13:58:16.438080","CLASSIFICATION_TYPE":"U","MEAN_MOTION":15.62120427,"ECCENTRICITY":0.00037737,"INCLINATION":97.5909,"RA_OF_ASC_NODE":334.1212,"ARG_OF_PERICENTER":215.7298,"MEAN_ANOMALY":144.3707,"EPHEMERIS_TYPE":0,"NORAD_CAT_ID":56963,"ELEMENT_SET_NO":999,"REV_AT_EPOCH":17084,"BSTAR":0.00064083906,"MEAN_MOTION_DOT":0.00056334,"MEAN_MOTION_DDOT":0},{"OBJECT_NAME":"ICEYE-X31","OBJECT_ID":"2023-174AJ","EPOCH":"2026-07-05T14:09:34.687584","CLASSIFICATION_TYPE":"U","MEAN_MOTION":15.34950749,"ECCENTRICITY":0.00017981,"INCLINATION":97.3769,"RA_OF_ASC_NODE":262.3317,"ARG_OF_PERICENTER":217.7185,"MEAN_ANOMALY":142.3932,"EPHEMERIS_TYPE":0,"NORAD_CAT_ID":58288,"ELEMENT_SET_NO":999,"REV_AT_EPOCH":14757,"BSTAR":0.00053669801,"MEAN_MOTION_DOT":0.00018137,"MEAN_MOTION_DDOT":0},{"OBJECT_NAME":"ICEYE-X34","OBJECT_ID":"2023-174AQ","EPOCH":"2026-07-05T06:02:11.239008","CLASSIFICATION_TYPE":"U","MEAN_MOTION":15.68858154,"ECCENTRICITY":0.0001878,"INCLINATION":97.387,"RA_OF_ASC_NODE":278.3613,"ARG_OF_PERICENTER":174.2767,"MEAN_ANOMALY":185.8516,"EPHEMERIS_TYPE":0,"NORAD_CAT_ID":58294,"ELEMENT_SET_NO":999,"REV_AT_EPOCH":14857,"BSTAR":0.0016866,"MEAN_MOTION_DOT":0.00197265,"MEAN_MOTION_DDOT":0},{"OBJECT_NAME":"ICEYE-X35","OBJECT_ID":"2023-174AY","EPOCH":"2026-07-05T14:25:26.888160","CLASSIFICATION_TYPE":"U","MEAN_MOTION":15.54377185,"ECCENTRICITY":0.00084786,"INCLINATION":97.3785,"RA_OF_ASC_NODE":271.7031,"ARG_OF_PERICENTER":137.5441,"MEAN_ANOMALY":222.647,"EPHEMERIS_TYPE":0,"NORAD_CAT_ID":58302,"ELEMENT_SET_NO":999,"REV_AT_EPOCH":14820,"BSTAR":0.0010422687,"MEAN_MOTION_DOT":0.00068789,"MEAN_MOTION_DDOT":0},{"OBJECT_NAME":"ICEYE-X38","OBJECT_ID":"2024-043C","EPOCH":"2026-07-05T13:40:54.364224","CLASSIFICATION_TYPE":"U","MEAN_MOTION":15.13030588,"ECCENTRICITY":0.00031002,"INCLINATION":97.8428,"RA_OF_ASC_NODE":330.8262,"ARG_OF_PERICENTER":46.7858,"MEAN_ANOMALY":313.3631,"EPHEMERIS_TYPE":0,"NORAD_CAT_ID":59100,"ELEMENT_SET_NO":999,"REV_AT_EPOCH":11445,"BSTAR":0.00030685402,"MEAN_MOTION_DOT":0.00005353,"MEAN_MOTION_DDOT":0},{"OBJECT_NAME":"ICEYE-X37","OBJECT_ID":"2024-043E","EPOCH":"2026-07-05T07:36:57.957408","CLASSIFICATION_TYPE":"U","MEAN_MOTION":15.06250709,"ECCENTRICITY":0.0013941,"INCLINATION":97.8342,"RA_OF_ASC_NODE":323.6059,"ARG_OF_PERICENTER":311.1477,"MEAN_ANOMALY":48.8546,"EPHEMERIS_TYPE":0,"NORAD_CAT_ID":59102,"ELEMENT_SET_NO":999,"REV_AT_EPOCH":12781,"BSTAR":0.00040417,"MEAN_MOTION_DOT":0.00005879,"MEAN_MOTION_DDOT":0},{"OBJECT_NAME":"ICEYE-X36","OBJECT_ID":"2024-043F","EPOCH":"2026-07-05T07:27:39.199104","CLASSIFICATION_TYPE":"U","MEAN_MOTION":15.07186096,"ECCENTRICITY":0.0004461,"INCLINATION":97.8399,"RA_OF_ASC_NODE":324.7074,"ARG_OF_PERICENTER":252.7268,"MEAN_ANOMALY":107.3471,"EPHEMERIS_TYPE":0,"NORAD_CAT_ID":59103,"ELEMENT_SET_NO":999,"REV_AT_EPOCH":12787,"BSTAR":0.00042902,"MEAN_MOTION_DOT":0.00006394,"MEAN_MOTION_DDOT":0},{"OBJECT_NAME":"ICEYE-X43","OBJECT_ID":"2024-149BZ","EPOCH":"2026-07-05T07:27:16.506144","CLASSIFICATION_TYPE":"U","MEAN_MOTION":14.99757785,"ECCENTRICITY":0.0007334,"INCLINATION":97.6816,"RA_OF_ASC_NODE":263.0319,"ARG_OF_PERICENTER":28.4032,"MEAN_ANOMALY":331.759,"EPHEMERIS_TYPE":0,"NORAD_CAT_ID":60539,"ELEMENT_SET_NO":999,"REV_AT_EPOCH":10283,"BSTAR":0.00045888,"MEAN_MOTION_DOT":0.00005616,"MEAN_MOTION_DDOT":0},{"OBJECT_NAME":"ICEYE-X39","OBJECT_ID":"2024-149CG","EPOCH":"2026-07-05T03:43:58.256832","CLASSIFICATION_TYPE":"U","MEAN_MOTION":15.00019985,"ECCENTRICITY":0.0006874,"INCLINATION":97.6761,"RA_OF_ASC_NODE":262.9354,"ARG_OF_PERICENTER":72.9414,"MEAN_ANOMALY":287.2562,"EPHEMERIS_TYPE":0,"NORAD_CAT_ID":60546,"ELEMENT_SET_NO":999,"REV_AT_EPOCH":10281,"BSTAR":0.0005071,"MEAN_MOTION_DOT":0.00006255,"MEAN_MOTION_DDOT":0},{"OBJECT_NAME":"ICEYE-X33","OBJECT_ID":"2024-149CJ","EPOCH":"2026-07-05T04:04:17.162112","CLASSIFICATION_TYPE":"U","MEAN_MOTION":15.00904778,"ECCENTRICITY":0.0001933,"INCLINATION":97.7323,"RA_OF_ASC_NODE":265.2172,"ARG_OF_PERICENTER":78.9897,"MEAN_ANOMALY":281.1544,"EPHEMERIS_TYPE":0,"NORAD_CAT_ID":60548,"ELEMENT_SET_NO":999,"REV_AT_EPOCH":10290,"BSTAR":0.00055925,"MEAN_MOTION_DOT":0.00007064,"MEAN_MOTION_DDOT":0}]}
