ICEYE-X2                
1 43800U 18099AU  26186.60079442  .00013985  00000+0  69028-3 0  9990
2 43800  97.4342 240.1192 0008800 231.6204 128.4240 15.17971348415613
ICEYE-X4                
1 44390U 19038D   26186.64715527  .00014074  00000+0  49017-3 0  9990
2 44390  97.8748 220.6489 0011975 233.4642 126.5495 15.29729557384620
ICEYE-X7                
1 46496U 20068L   26186.62948206  .00014360  00000+0  46770-3 0  9995
2 46496  97.7506 153.9994 0005256 256.5940 103.4715 15.31948235317614
ICEYE-X6                
1 46497U 20068M   26186.61330475  .00003735  00000+0  27052-3 0  9994
2 46497  98.0971 181.1665 0007935  38.0216 322.1567 15.04623120316008
ICEYE-X21               
1 55049U 23001AS  26175.21618542  .01585954  23968-5  60214-3 0  9995
2 55049  97.3001 262.6152 0012377 285.9702  74.0225 16.24069885194757
ICEYE-X25               
1 56963U 23084AH  26186.58213470  .00056334  00000+0  64084-3 0  9994
2 56963  97.5909 334.1212 0003773 215.7298 144.3707 15.62120427170846
ICEYE-X31               
1 58288U 23174AJ  26186.58998481  .00018137  00000+0  53670-3 0  9996
2 58288  97.3769 262.3317 0001798 217.7185 142.3932 15.34950749147579
ICEYE-X34               
1 58294U 23174AQ  26186.25151898  .00197265  00000+0  16866-2 0  9995
2 58294  97.3870 278.3613 0001877 174.2767 185.8516 15.68858154148571
ICEYE-X35               
1 58302U 23174AY  26186.60100565  .00068789  00000+0  10423-2 0  9990
2 58302  97.3785 271.7031 0008478 137.5441 222.6470 15.54377185148206
ICEYE-X38               
1 59100U 24043C   26186.57007366  .00005353  00000+0  30685-3 0  9995
2 59100  97.8428 330.8262 0003100  46.7858 313.3631 15.13030588114450
ICEYE-X37               
1 59102U 24043E   26186.31733747  .00005879  00000+0  40417-3 0  9995
2 59102  97.8342 323.6059 0013940 311.1477  48.8546 15.06250709127810
ICEYE-X36               
1 59103U 24043F   26186.31087037  .00006394  00000+0  42902-3 0  9994
2 59103  97.8399 324.7074 0004460 252.7268 107.3471 15.07186096127879
ICEYE-X43               
1 60539U 24149BZ  26186.31060771  .00005616  00000+0  45888-3 0  9994
2 60539  97.6816 263.0319 0007333  28.4032 331.7590 14.99757785102835
ICEYE-X39               
1 60546U 24149CG  26186.15553539  .00006255  00000+0  50710-3 0  9993
2 60546  97.6761 262.9354 0006874  72.9414 287.2562 15.00019985102814
ICEYE-X33               
1 60548U 24149CJ  26186.16964309  .00007064  00000+0  55925-3 0  9999
2 60548  97.7323 265.2172 0001933  78.9897 281.1544 15.00904778102903
